[{"OBJECT_NAME":"STARLINK-3808","OBJECT_ID":"2022-045AM","EPOCH":"2026-03-09T15:24:29.518848","MEAN_MOTION":15.08841803,"ECCENTRICITY":0.0001153,"INCLINATION":53.2172,"RA_OF_ASC_NODE":189.3353,"ARG_OF_PERICENTER":86.4553,"MEAN_ANOMALY":273.6571,"EPHEMERIS_TYPE":0,"CLASSIFICATION_TYPE":"U","NORAD_CAT_ID":52366,"ELEMENT_SET_NO":999,"REV_AT_EPOCH":21591,"BSTAR":-3.1599e-5,"MEAN_MOTION_DOT":-7.91e-6,"MEAN_MOTION_DDOT":0},{"OBJECT_NAME":"FENGYUN 1C DEB","OBJECT_ID":"1999-025BBA","EPOCH":"2026-03-08T04:01:46.595424","MEAN_MOTION":14.68382206,"ECCENTRICITY":0.01906782,"INCLINATION":99.0027,"RA_OF_ASC_NODE":196.6188,"ARG_OF_PERICENTER":258.0888,"MEAN_ANOMALY":99.8879,"EPHEMERIS_TYPE":0,"CLASSIFICATION_TYPE":"U","NORAD_CAT_ID":30960,"ELEMENT_SET_NO":999,"REV_AT_EPOCH":99951,"BSTAR":0.0022197351,"MEAN_MOTION_DOT":0.00016894,"MEAN_MOTION_DDOT":0}]
